NORAD_CAT_ID,OBJECT_NAME,OBJECT_TYPE,EPOCH,MEAN_MOTION,ECCENTRICITY,INCLINATION,RA_OF_ASC_NODE,ARG_OF_PERICENTER,MEAN_ANOMALY,BSTAR,MEAN_MOTION_DOT,MEAN_MOTION_DDOT,TLE_LINE0,TLE_LINE1,TLE_LINE2,SEMIMAJOR_AXIS,PERIOD,APOGEE,PERIGEE,DECAYED
52623.0,STARLINK-3986,PAYLOAD,2024-01-02 23:52:25,15.08844897,0.0001453,53.2142,245.625,95.0358,265.08,5.1892e-05,5.38e-06,0.0,0 STARLINK-3986,1 52623U 22052AB  24002.99474322  .00000538  00000-0  51892-4 0  9992,2 52623  53.2142 245.6250 0001453  95.0358 265.0800 15.08844897 90716,6917.865,95.437,540.736,538.725,0.0
52623.0,STARLINK-3986,PAYLOAD,2024-01-03 22:07:49,15.08846396,0.0001415,53.2151,241.4612,103.6373,256.4776,-5.0613e-05,-1.094e-05,0.0,0 STARLINK-3986,1 52623U 22052AB  24003.92210484 -.00001094  00000-0 -50613-4 0  9993,2 52623  53.2151 241.4612 0001415 103.6373 256.4776 15.08846396 90850,6917.861,95.437,540.705,538.747,0.0
52623.0,STARLINK-3986,PAYLOAD,2024-01-04 01:18:36,15.08801695,0.0001718,53.2153,240.8657,110.5048,249.6129,0.00062661,9.688e-05,0.0,0 STARLINK-3986,1 52623U 22052AB  24004.05459478  .00009688  00000-0  62661-3 0  9996,2 52623  53.2153 240.8657 0001718 110.5048 249.6129 15.08801695 91250,6917.997,95.44,541.051,538.674,0.0
52623.0,STARLINK-3986,PAYLOAD,2024-01-04 20:23:14,15.08835751,0.0001495,53.2152,237.2969,93.4891,266.6272,1.0639e-05,-1.19e-06,0.0,0 STARLINK-3986,1 52623U 22052AB  24004.84947033 -.00000119  00000-0  10639-4 0  9992,2 52623  53.2152 237.2969 0001495  93.4891 266.6272 15.08835751 91373,6917.893,95.438,540.793,538.724,0.0
52623.0,STARLINK-3986,PAYLOAD,2024-01-04 21:58:37,15.08836053,0.0001497,53.2152,236.9994,92.9205,267.1959,1.0302e-05,-1.24e-06,0.0,0 STARLINK-3986,1 52623U 22052AB  24004.91571017 -.00000124  00000-0  10302-4 0  9998,2 52623  53.2152 236.9994 0001497  92.9205 267.1959 15.08836053 91006,6917.892,95.438,540.793,538.722,0.0
52623.0,STARLINK-3986,PAYLOAD,2024-01-05 21:49:24,15.08840992,0.0001546,53.2154,232.5391,100.5333,259.5833,9.3424e-05,1.199e-05,0.0,0 STARLINK-3986,1 52623U 22052AB  24005.90930668  .00001199  00000-0  93424-4 0  9997,2 52623  53.2154 232.5391 0001546 100.5333 259.5833 15.08840992 91153,6917.877,95.437,540.812,538.673,0.0
52623.0,STARLINK-3986,PAYLOAD,2024-01-06 20:04:47,15.0885294,0.0001275,53.2154,228.3771,86.5207,273.5931,0.00021343,3.112e-05,0.0,0 STARLINK-3986,1 52623U 22052AB  24006.83665828  .00003112  00000-0  21343-3 0  9990,2 52623  53.2154 228.3771 0001275  86.5207 273.5931 15.08852940 91678,6917.841,95.437,540.588,538.824,0.0
52623.0,STARLINK-3986,PAYLOAD,2024-01-06 21:40:11,15.08843781,0.000137,53.2154,228.0797,93.0629,267.052,0.0001375,1.901e-05,0.0,0 STARLINK-3986,1 52623U 22052AB  24006.90290683  .00001901  00000-0  13750-3 0  9998,2 52623  53.2154 228.0797 0001370  93.0629 267.0520 15.08843781 91305,6917.869,95.437,540.682,538.786,0.0
52623.0,STARLINK-3986,PAYLOAD,2024-01-07 19:55:40,15.0878316,0.0001208,53.2157,223.918,97.3298,262.7831,-0.00042352,-7.011e-05,0.0,0 STARLINK-3986,1 52623U 22052AB  24007.83032665 -.00007011  00000-0 -42352-3 0  9995,2 52623  53.2157 223.9180 0001208  97.3298 262.7831 15.08783160 91825,6918.054,95.441,540.755,539.083,0.0
52623.0,STARLINK-3986,PAYLOAD,2024-01-07 21:30:59,15.08831562,0.0001752,53.2159,223.6206,142.2631,217.8484,-4.3315e-06,-3.57e-06,0.0,0 STARLINK-3986,1 52623U 22052AB  24007.89652770 -.00000357  00000-0 -43315-5 0  9994,2 52623  53.2159 223.6206 0001752 142.2631 217.8484 15.08831562 91452,6917.906,95.438,540.983,538.559,0.0
52623.0,STARLINK-3986,PAYLOAD,2024-01-08 00:41:46,15.08833497,0.0001259,53.2159,223.0256,108.8575,251.2553,2.0732e-05,4.2e-07,0.0,0 STARLINK-3986,1 52623U 22052AB  24008.02900989  .00000042  00000-0  20732-4 0  9994,2 52623  53.2159 223.0256 0001259 108.8575 251.2553 15.08833497 91850,6917.9,95.438,540.636,538.894,0.0
52623.0,STARLINK-3986,PAYLOAD,2024-01-08 19:46:23,15.08842777,0.0001467,53.2152,219.4549,98.2661,261.8497,8.1782e-05,1.014e-05,0.0,0 STARLINK-3986,1 52623U 22052AB  24008.82388341  .00001014  00000-0  81782-4 0  9996,2 52623  53.2152 219.4549 0001467  98.2661 261.8497 15.08842777 91974,6917.872,95.437,540.752,538.722,0.0
52623.0,STARLINK-3986,PAYLOAD,2024-01-08 21:21:46,15.08841044,0.000134,53.2151,219.1577,86.1871,273.9274,0.0001154,1.549e-05,0.0,0 STARLINK-3986,1 52623U 22052AB  24008.89012447  .00001549  00000-0  11540-3 0  9991,2 52623  53.2151 219.1577 0001340  86.1871 273.9274 15.08841044 91603,6917.877,95.437,540.669,538.815,0.0
52623.0,STARLINK-3986,PAYLOAD,2024-01-09 13:15:38,15.08821433,0.000131,53.2151,216.1838,106.5071,253.6065,0.00054701,8.424e-05,0.0,0 STARLINK-3986,1 52623U 22052AB  24009.55252489  .00008424  00000-0  54701-3 0  9992,2 52623  53.2151 216.1838 0001310 106.5071 253.6065 15.08821433 91700,6917.937,95.439,540.708,538.896,0.0
52623.0,STARLINK-3986,PAYLOAD,2024-01-09 19:37:10,15.08825662,0.0001196,53.2148,214.9955,84.1394,275.9734,0.00061774,9.553e-05,0.0,0 STARLINK-3986,1 52623U 22052AB  24009.81748583  .00009553  00000-0  61774-3 0  9998,2 52623  53.2148 214.9955 0001196  84.1394 275.9734 15.08825662 92128,6917.924,95.438,540.617,538.962,0.0
52623.0,STARLINK-3986,PAYLOAD,2024-01-09 21:12:33,15.08828382,0.0001279,53.2149,214.698,101.0589,259.0547,0.00061904,9.575e-05,0.0,0 STARLINK-3986,1 52623U 22052AB  24009.88372529  .00009575  00000-0  61904-3 0  9997,2 52623  53.2149 214.6980 0001279 101.0589 259.0547 15.08828382 91756,6917.916,95.438,540.666,538.896,0.0
52623.0,STARLINK-3986,PAYLOAD,2024-01-09 22:47:54,15.08908307,7.12e-05,53.215,214.4003,54.8186,305.2873,-0.00058741,-9.642e-05,0.0,0 STARLINK-3986,1 52623U 22052AB  24009.94993828 -.00009642  00000-0 -58741-3 0  9997,2 52623  53.2150 214.4003 0000712  54.8186 305.2873 15.08908307 92147,6917.672,95.433,540.029,539.044,0.0
52623.0,STARLINK-3986,PAYLOAD,2024-01-10 19:27:56,15.0885268,0.0001414,53.2136,210.5345,90.1562,269.9592,6.6438e-05,7.7e-06,0.0,0 STARLINK-3986,1 52623U 22052AB  24010.81107613  .00000770  00000-0  66438-4 0  9998,2 52623  53.2136 210.5345 0001414  90.1562 269.9592 15.08852680 92278,6917.842,95.437,540.685,538.728,0.0
52623.0,STARLINK-3986,PAYLOAD,2024-01-11 11:21:48,15.08847228,0.0001405,53.2143,207.561,95.1252,264.99,-6.8188e-05,-1.373e-05,0.0,0 STARLINK-3986,1 52623U 22052AB  24011.47347516 -.00001373  00000-0 -68188-4 0  9995,2 52623  53.2143 207.5610 0001405  95.1252 264.9900 15.08847228 92379,6917.858,95.437,540.695,538.751,0.0
52623.0,STARLINK-3986,PAYLOAD,2024-01-11 19:18:44,15.08847413,0.0001378,53.2156,206.074,97.317,262.7979,-6.1406e-05,-1.265e-05,0.0,0 STARLINK-3986,1 52623U 22052AB  24011.80467697 -.00001265  00000-0 -61406-4 0  9991,2 52623  53.2156 206.0740 0001378  97.3170 262.7979 15.08847413 92045,6917.858,95.437,540.676,538.769,0.0
52623.0,STARLINK-3986,PAYLOAD,2024-01-12 12:47:58,15.0884223,0.0001307,53.2157,202.8023,81.8422,278.2718,4.1138e-05,3.67e-06,0.0,0 STARLINK-3986,1 52623U 22052AB  24012.53331438  .00000367  00000-0  41138-4 0  9995,2 52623  53.2157 202.8023 0001307  81.8422 278.2718 15.08842230 92151,6917.874,95.437,540.643,538.834,0.0
52623.0,STARLINK-3986,PAYLOAD,2024-01-12 19:09:30,15.08844247,0.000129,53.2161,201.6133,95.9383,264.1757,5.3419e-05,5.62e-06,0.0,0 STARLINK-3986,1 52623U 22052AB  24012.79827152  .00000562  00000-0  53419-4 0  9998,2 52623  53.2161 201.6133 0001290  95.9383 264.1757 15.08844247 92571,6917.867,95.437,540.625,538.84,0.0
52623.0,STARLINK-3986,PAYLOAD,2024-01-13 19:00:17,15.08839126,0.0001344,53.2153,197.1521,113.3412,246.7721,6.3647e-05,7.25e-06,0.0,0 STARLINK-3986,1 52623U 22052AB  24013.79187399  .00000725  00000-0  63647-4 0  9996,2 52623  53.2153 197.1521 0001344 113.3412 246.7721 15.08839126 92724,6917.883,95.438,540.678,538.818,0.0
52623.0,STARLINK-3986,PAYLOAD,2024-01-14 10:54:09,15.08838513,0.000131,53.2157,194.1772,103.4589,256.6549,3.0608e-05,1.99e-06,0.0,0 STARLINK-3986,1 52623U 22052AB  24014.45427638  .00000199  00000-0  30608-4 0  9999,2 52623  53.2157 194.1772 0001310 103.4589 256.6549 15.08838513 92447,6917.885,95.438,540.656,538.844,0.0
52623.0,STARLINK-3986,PAYLOAD,2024-01-14 18:51:04,15.08843849,0.0001198,53.2154,192.6916,93.4667,266.6462,5.3873e-05,5.7e-06,0.0,0 STARLINK-3986,1 52623U 22052AB  24014.78547246  .00000570  00000-0  53873-4 0  9995,2 52623  53.2154 192.6916 0001198  93.4667 266.6462 15.08843849 92494,6917.869,95.437,540.562,538.905,0.0
52623.0,STARLINK-3986,PAYLOAD,2024-01-15 12:20:19,15.08837782,0.00012,53.2152,189.4205,94.9086,265.2043,4.415e-05,4.15e-06,0.0,0 STARLINK-3986,1 52623U 22052AB  24015.51411702  .00000415  00000-0  44150-4 0  9990,2 52623  53.2152 189.4205 0001200  94.9086 265.2043 15.08837782 92985,6917.887,95.438,540.582,538.922,0.0
52623.0,STARLINK-3986,PAYLOAD,2024-01-15 17:06:28,15.08839344,0.0001201,53.2153,188.5281,99.6668,260.446,5.1872e-05,5.38e-06,0.0,0 STARLINK-3986,1 52623U 22052AB  24015.71283545  .00000538  00000-0  51872-4 0  9999,2 52623  53.2153 188.5281 0001201  99.6668 260.4460 15.08839344 92637,6917.882,95.438,540.578,538.917,0.0
52623.0,STARLINK-3986,PAYLOAD,2024-01-16 10:35:43,15.08837635,0.0001198,53.2153,185.2571,99.185,260.9277,1.2589e-05,-8.7e-07,0.0,0 STARLINK-3986,1 52623U 22052AB  24016.44147918 -.00000087  00000-0  12589-4 0  9995,2 52623  53.2153 185.2571 0001198  99.1850 260.9277 15.08837635 92740,6917.888,95.438,540.581,538.924,0.0
52623.0,STARLINK-3986,PAYLOAD,2024-01-16 18:32:39,15.08838727,0.0001175,53.2155,183.7704,93.9152,266.1974,1.7003e-05,-1.7e-07,0.0,0 STARLINK-3986,1 52623U 22052AB  24016.77267875 -.00000017  00000-0  17003-4 0  9995,2 52623  53.2155 183.7704 0001175  93.9152 266.1974 15.08838727 93178,6917.884,95.438,540.562,538.936,0.0
52623.0,STARLINK-3986,PAYLOAD,2024-01-17 15:12:40,15.08835133,0.0001158,53.216,179.9054,88.9237,271.1888,1.4142e-05,-6.3e-07,0.0,0 STARLINK-3986,1 52623U 22052AB  24017.63380413 -.00000063  00000-0  14142-4 0  9997,2 52623  53.2160 179.9054 0001158  88.9237 271.1888 15.08835133 92928,6917.895,95.438,540.561,538.959,0.0
